[{"OBJECT_NAME":"STARLINK-32343","OBJECT_ID":"2024-196F","EPOCH":"2026-03-09T08:27:48.523680","MEAN_MOTION":15.30188975,"ECCENTRICITY":0.000132,"INCLINATION":53.1604,"RA_OF_ASC_NODE":103.0009,"ARG_OF_PERICENTER":90.7402,"MEAN_ANOMALY":269.375,"EPHEMERIS_TYPE":0,"CLASSIFICATION_TYPE":"U","NORAD_CAT_ID":61712,"ELEMENT_SET_NO":999,"REV_AT_EPOCH":7710,"BSTAR":1.8799e-5,"MEAN_MOTION_DOT":1.97e-6,"MEAN_MOTION_DDOT":0},{"OBJECT_NAME":"TRANSPORTER-1 OBJECT L","OBJECT_ID":"2021-006L","EPOCH":"2026-03-09T22:38:42.795168","MEAN_MOTION":15.33192932,"ECCENTRICITY":0.00114726,"INCLINATION":97.2368,"RA_OF_ASC_NODE":117.6447,"ARG_OF_PERICENTER":180.5165,"MEAN_ANOMALY":179.6068,"EPHEMERIS_TYPE":0,"CLASSIFICATION_TYPE":"U","NORAD_CAT_ID":47423,"ELEMENT_SET_NO":999,"REV_AT_EPOCH":28445,"BSTAR":0.00025636794,"MEAN_MOTION_DOT":8.162e-5,"MEAN_MOTION_DDOT":0}]
